STARLINK-32537          
1 61923U 24207M   26068.08050523  .00028705  00000+0  10489-2 0  9996
2 61923  42.9996 289.0978 0001558 273.0497  87.0176 15.27569636 74589
FLOCK 4G-11             
1 62629U 25009W   26068.45629261  .00012672  00000+0  47740-3 0  9990
2 62629  97.3964 150.6183 0001611 333.5407  26.5750 15.27220677 63680
